FENGYUN 1C DEB          
1 30720U 99025ASE 17345.22362324  .00000289  00000-0  15384-3 0  9994
2 30720  98.8661  76.4224 0034705 102.5625 287.5446 14.20649688559651
